P/2013 G1 (Kowalski),e,5.4569,221.3106,51.4225,6.905482,0.0543142,0.50990060,218.6451,12/05.0/2024,2000,g 11.0,4.0
# From MPC 84025
P/2013 G4 (PANSTARRS),e,5.9194,339.5883,214.5377,4.433422,0.1055833,0.40918655,95.0290,12/05.0/2024,2000,g 15.0,4.0
# From MPC 91613
P/2013 J2 (McNaught),e,15.5016,289.3010,37.8778,6.227365,0.0634231,0.65610611,261.0887,12/05.0/2024,2000,g 13.0,4.0
# From MPC 86229
P/2013 N3 (PANSTARRS),e,2.1684,17.5741,323.9150,7.403413,0.0489278,0.59136985,193.0690,12/05.0/2024,2000,g 13.0,4.0
# From MPC 85834
P/2013 N5 (PANSTARRS),e,23.4270,187.1664,176.9628,6.798176,0.0556052,0.73178820,231.6208,12/05.0/2024,2000,g 17.0,4.0
# From MPC 85834
P/2013 P1 (PANSTARRS),e,18.6945,160.6799,138.1750,8.591517,0.0391381,0.60270732,168.5789,12/05.0/2024,2000,g 12.0,4.0
# From MPEC 2022-V95
P/2013 R3 (Catalina-PANSTARRS),e,0.8645,341.9669,11.4314,3.034023,0.1864986,0.27631548,48.3399,12/05.0/2024,2000,g 14.0,4.0
# From unp
P/2013 R3-A (Catalina-PANSTARRS),e,0.8636,341.9214,11.5104,3.033785,0.1865206,0.27624920,48.4152,12/05.0/2024,2000,g  9.0,4.0
# From MPEC 2015-M77
P/2013 R3-B (Catalina-PANSTARRS),e,0.8649,341.9777,11.4450,3.033998,0.1865010,0.27629189,48.3361,12/05.0/2024,2000,g  9.0,4.0
# From MPC 85835
P/2013 T1 (PANSTARRS),e,24.2767,10.0951,346.1803,5.854682,0.0695743,0.62375656,287.5178,12/05.0/2024,2000,g 16.5,4.0
# From MPC 86643
P/2013 T2 (Schwartz),e,9.4484,0.8137,345.5764,3.493197,0.1509626,0.50032213,276.4650,12/05.0/2024,2000,g 16.0,4.0
# From MPC 91613
P/2013 W1 (PANSTARRS),e,4.6995,117.8331,1.2313,3.485454,0.1514659,0.59370718,234.1393,12/05.0/2024,2000,g 17.5,4.0
# From MPC101095
P/2013 YG46 (Spacewatch),e,7.7680,48.5271,242.9243,3.277834,0.1660824,0.46155329,115.2721,12/05.0/2024,2000,g 10.0,4.0
# From MPC 89728
P/2014 A2 (Hill),e,24.5632,106.6559,356.1763,5.923086,0.0683726,0.64660122,278.2842,12/05.0/2024,2000,g 15.0,4.0
# From MPEC 2024-F34
P/2014 C1 (TOTAS),e,3.2313,40.0129,188.4172,4.013209,0.1225932,0.34549270,200.1134,12/05.0/2024,2000,g 15.5,4.0
# From MPEC 2022-WD2
C/2014 F3 (Sheppard-Trujillo),e,6.5210,325.9813,5.1297,14.40933,0.0180193,0.60243273,23.1860,12/05.0/2024,2000,g  6.0,4.0
# From MPC 98560
P/2014 L2 (NEOWISE),e,5.1926,149.3463,182.7074,6.310299,0.0621769,0.64651687,235.7707,12/05.0/2024,2000,g 12.0,4.0
# From MPC 90769
P/2014 L3 (Hill),e,6.2562,115.5286,178.6745,8.183528,0.0421011,0.77124148,160.7166,12/05.0/2024,2000,g 16.0,4.0
# From MPC 91614
P/2014 M4 (PANSTARRS),e,3.3470,263.2001,148.1138,5.863560,0.0694164,0.59612610,251.3949,12/05.0/2024,2000,g 15.0,4.0
# From MPC 98560
P/2014 O3 (PANSTARRS),e,7.7890,87.6245,204.7235,7.586202,0.0471702,0.38258424,183.7302,12/05.0/2024,2000,g 10.5,4.0
# From MPEC 2024-X74
C/2014 OG392 (PANSTARRS),e,9.0325,145.8239,255.1390,12.25901,0.0229626,0.18589708,24.5807,12/05.0/2024,2000,g  6.0,4.0
# From MPC 91616
P/2014 U4 (PANSTARRS),e,6.4240,11.9280,347.8537,3.511544,0.1497811,0.46399092,208.3234,12/05.0/2024,2000,g 18.0,4.0
# From MPEC 2024-X74
C/2014 UN271 (Bernardinelli-Bernstein),h,01/16.7816/2031,95.4412,189.9400,326.0888,1.003949,10.959353,2000,2.5,3.2
# From MPC 95211
P/2014 V1 (PANSTARRS),e,22.5046,166.1934,177.6633,5.480360,0.0768228,0.53360869,276.4610,12/05.0/2024,2000,g 14.0,4.0
# From MPC105542
P/2014 W4 (PANSTARRS),e,15.2848,33.3241,67.6890,6.580676,0.0583846,0.35495284,190.0745,12/05.0/2024,2000,g 11.0,4.0
# From MPC 94281
P/2014 X1 (Elenin),e,26.0533,61.5563,33.9233,6.199379,0.0638531,0.71079623,231.1569,12/05.0/2024,2000,g 15.0,4.0
# From MPC 92275
P/2015 A3 (PANSTARRS),e,172.5508,277.4754,249.6501,7.817498,0.0450923,0.85056309,161.1704,12/05.0/2024,2000,g 20.0,4.0
# From MPC 99270
P/2015 B1 (PANSTARRS),e,18.0809,352.8606,188.6948,9.476601,0.0337851,0.36660842,114.1310,12/05.0/2024,2000,g  8.5,4.0
# From MPC109141
P/2015 B4 (Lemmon-PANSTARRS),e,1.7675,266.1342,227.0931,8.505781,0.0397313,0.56227730,142.5886,12/05.0/2024,2000,g 11.0,4.0
# From MPC101096
P/2015 C1 (TOTAS-Gibbs),e,13.9419,348.7844,177.9915,6.555458,0.0587218,0.56566270,206.0034,12/05.0/2024,2000,g 12.5,4.0
# From MPC109141
P/2015 D5 (Kowalski),e,20.5535,74.0903,39.6010,8.944534,0.0368441,0.49167757,143.4572,12/05.0/2024,2000,g  9.0,4.0
# From MPEC 2024-R10
P/2015 D6 (Lemmon-PANSTARRS),e,20.2771,45.4826,125.8283,7.121861,0.0518578,0.36214043,178.5911,12/05.0/2024,2000,g 10.5,4.0
# From MPC 95213
P/2015 K5 (PANSTARRS),e,39.9292,134.2975,106.1394,6.728109,0.0564761,0.55143705,196.6928,12/05.0/2024,2000,g 13.5,4.0
# From MPC107684
P/2015 M2 (PANSTARRS),e,3.9678,86.6985,225.8629,7.254084,0.0504464,0.17789815,170.4906,12/05.0/2024,2000,g  8.5,4.0
# From MPC 99819
P/2015 P4 (PANSTARRS),e,8.7216,104.6842,280.7336,6.047535,0.0662730,0.58535932,214.4244,12/05.0/2024,2000,g 14.0,4.0
# From MPEC 2022-K19
P/2015 PD229 (Cameron-ISON),e,2.0210,342.7451,352.7145,7.204810,0.0509648,0.32556216,173.4106,12/05.0/2024,2000,g 11.5,2.0
# From MPC 96867
P/2015 Q2 (Pimentel),e,146.5569,228.5517,244.6704,7.349798,0.0494642,0.75187666,166.7709,12/05.0/2024,2000,g 15.5,4.0
# From MPC 98562
P/2015 R1 (PANSTARRS),e,22.6864,48.3803,300.5395,5.883440,0.0690649,0.63321620,237.9499,12/05.0/2024,2000,g 14.0,4.0
# From MPC 95734
P/2015 R2 (PANSTARRS),e,15.4818,168.6030,149.8776,4.481081,0.1039034,0.45214851,358.8849,12/05.0/2024,2000,g 14.5,4.0
# From MPC102953
P/2015 TO19 (Lemmon-PANSTARRS),e,6.5054,321.6610,89.3127,4.547216,0.1016449,0.35967303,324.0779,12/05.0/2024,2000,g 14.0,4.0
# From MPC110080
P/2015 TP200 (LINEAR),e,8.7798,6.9370,82.5408,7.261937,0.0503646,0.53736015,148.8030,12/05.0/2024,2000,g 11.0,4.0
# From MPC101098
P/2015 W2 (Catalina),e,11.6189,294.0895,117.6801,7.292347,0.0500499,0.63548019,167.4481,12/05.0/2024,2000,g 13.0,4.0
# From MPEC 2023-J29
P/2015 X3 (PANSTARRS),e,24.4232,77.2562,306.9580,4.998887,0.0881849,0.43999191,299.3733,12/05.0/2024,2000,g 15.0,4.0
# From MPC115881
P/2015 X6 (PANSTARRS),e,4.5654,106.9359,329.8031,2.751852,0.2159069,0.17378778,325.9514,12/05.0/2024,2000,g 16.0,4.0
# From MPEC 2022-OB6
P/2016 A3 (PANSTARRS),e,8.5181,187.1515,340.7964,7.869164,0.0446489,0.38677336,124.1379,12/05.0/2024,2000,g 10.0,4.0
# From MPC102098
P/2016 A7 (PANSTARRS),e,16.4962,221.2416,352.5157,5.047517,0.0869135,0.56874531,281.2616,12/05.0/2024,2000,g 16.0,4.0
# From MPEC 2021-P47
P/2016 G1 (PANSTARRS),e,10.9701,204.0153,111.0938,2.583954,0.2372886,0.21011879,321.5193,12/05.0/2024,2000,g 14.0,4.0
# From MPEC 2024-C04
C/2016 J2 (Denneau),h,04/13.3372/2016,130.3535,186.3543,318.3241,1.000440,1.496281,2000,17.0,4.0
# From MPC102099
P/2016 P1 (PANSTARRS),e,24.4011,319.1837,270.8640,3.203507,0.1718959,0.28775382,218.9839,12/05.0/2024,2000,g 15.0,4.0
# From MPEC 2024-H50
C/2016 Q2 (PANSTARRS),h,05/12.0324/2021,109.3394,322.3436,84.5400,1.002894,7.080181,2000,6.0,4.0
# From MPEC 2022-K19
P/2016 R4 (Gibbs),e,10.8670,168.2750,174.1221,5.336246,0.0799559,0.47503260,244.4481,12/05.0/2024,2000,g 12.5,4.0
# From MPC105543
P/2016 S1 (PANSTARRS),e,94.7371,227.6677,273.1772,8.268159,0.0414563,0.71175174,116.7889,12/05.0/2024,2000,g 12.0,4.0
# From MPC106345
P/2016 WM48 (Lemmon),e,117.6346,59.9538,36.1830,8.173745,0.0421767,0.78393364,119.7211,12/05.0/2024,2000,g 15.0,4.0
# From MPEC 2021-P47
C/2016 X1 (Lemmon),e,26.4702,256.2991,224.5734,2227,0.0000094,0.99660700,0.0000,04/29.9578/2019,2000,g  6.0,4.0
# From MPEC 2022-OB6
C/2017 B3 (LINEAR),e,54.2025,2.2207,284.7991,4234,0.0000036,0.99907068,0.0000,01/30.4696/2019,2000,g  6.0,4.0
# From MPC103847
P/2017 B4 (PANSTARRS),e,20.0584,121.4578,11.0197,4.410520,0.1064068,0.36495152,359.9130,01/05.0/2017,2000,g 14.5,4.0
# From MPEC 2022-OB6
P/2017 D1 (Fuls),e,20.7720,82.1985,8.0380,4.823637,0.0930341,0.43778820,286.7955,12/05.0/2024,2000,g 14.0,4.0
# From MPEC 2022-OB6
P/2017 D4 (PANSTARRS),e,10.5613,264.9131,212.1205,7.542284,0.0475828,0.63042198,143.1585,12/05.0/2024,2000,g 13.0,4.0
# From MPEC 2024-C04
P/2017 G1 (PANSTARRS),e,5.1558,247.1436,225.2338,7.192873,0.0510917,0.65066645,161.0089,12/05.0/2024,2000,g 13.5,4.0
# From MPC108595
P/2017 G2 (PANSTARRS),e,47.9683,79.9024,105.2300,8.038253,0.0432476,0.64849234,118.2999,12/05.0/2024,2000,g 13.0,4.0
# From MPEC 2024-X74
C/2017 K2 (PANSTARRS),e,87.6326,88.2222,236.2015,5956,0.0000021,0.99969789,0.0000,12/19.1452/2022,2000,g  1.5,4.0
# From MPEC 2021-N06
P/2017 K3 (Gasparovic),e,4.2727,354.2447,253.2970,5.585587,0.0746622,0.57904509,205.7431,12/05.0/2024,2000,g 14.5,4.0
# From MPEC 2021-P47
C/2017 K5 (PANSTARRS),h,03/26.1180/2020,82.2771,102.4513,171.9840,1.003385,7.681264,2000,5.0,4.0
# From MPEC 2022-OB6
C/2017 M4 (ATLAS),h,01/17.7865/2019,105.6221,66.0237,167.4607,1.000435,3.239608,2000,6.0,4.0
# From MPC114599
P/2017 P1 (PANSTARRS),e,7.6878,221.4632,122.8169,7.921476,0.0442074,0.30941296,104.2820,12/05.0/2024,2000,g 10.0,4.0
# From MPEC 2022-OB6
P/2017 S8 (PANSTARRS),e,29.8413,191.5215,254.8953,2.778703,0.2127850,0.39111748,172.6653,12/05.0/2024,2000,g 16.0,4.0
# From MPEC 2024-A43
C/2017 T2 (PANSTARRS),e,57.2937,64.4522,92.7926,1524,0.0000166,0.99894592,0.0000,05/05.6439/2020,2000,g  5.0,4.0
# From MPC115882
P/2017 TW13 (Lemmon),e,44.8765,322.1555,119.9784,7.136201,0.0517015,0.71076284,121.8330,12/05.0/2024,2000,g 15.0,2.0
# From MPEC 2022-K19
P/2017 U3 (PANSTARRS),e,15.9199,165.0680,296.3395,4.920324,0.0903054,0.10071510,186.0886,12/05.0/2024,2000,g 11.0,4.0
# From MPEC 2023-A50
C/2017 U7 (PANSTARRS),h,09/16.2549/2019,142.6378,276.3158,326.4515,1.002796,6.423495,2000,8.3,2.0
# From MPC114601
P/2017 W3 (Gibbs),e,18.1817,210.1018,327.7627,7.820350,0.0450676,0.50677750,111.4908,12/05.0/2024,2000,g 10.5,4.0
# From MPEC 2024-DC6
C/2017 Y2 (PANSTARRS),h,11/05.0541/2020,128.4498,66.0370,147.8553,1.001336,4.624814,2000,15.0,4.0
# From MPC111770
P/2017 Y3 (Leonard),e,27.6146,153.9790,67.3920,9.798816,0.0321324,0.86943399,80.1251,12/05.0/2024,2000,g 16.5,4.0
# From MPEC 2021-P47
C/2018 A3 (ATLAS),e,139.5857,194.3347,86.4608,343.3891,0.0001549,0.99041935,0.0000,01/08.9188/2019,2000,g  8.5,4.0
# From MPC109147
